M2 PATHFINDER           
1 45727U 20037E   26190.25752302  .00001519  00000+0  11208-3 0  9991
2 45727  97.8157  21.7386 0013329  80.7061 279.5671 15.04779974328813
NETSAT-4                
1 46504U 20068U   26190.60999016  .00013033  00000+0  28188-3 0  9992
2 46504  97.8612 200.6643 0004020 217.4742 142.6226 15.44626563319231
NETSAT-3                
1 46505U 20068V   26190.82771801  .00014051  00000+0  31564-3 0  9990
2 46505  97.8658 199.0882 0003248 236.5076 123.5860 15.43481617319174
NETSAT-1                
1 46506U 20068W   26190.23581022  .00009005  00000+0  26649-3 0  9991
2 46506  97.8752 192.5160 0002497 300.1737  59.9257 15.35153967318686
NETSAT-2                
1 46507U 20068X   26189.97064587  .00016384  00000+0  32665-3 0  9996
2 46507  97.8620 199.9501 0001471 244.6815 115.4281 15.46967375319102
GREENCUBE (IO-117)      
1 53109U 22080E   26190.28466997 -.00000003  00000+0  00000+0 0  9991
2 53109  70.1425 290.5613 0009027 284.8400  75.1260  6.42583278 93489
SITRO-AIS 5 (KATYS)     
1 57176U 23091L   26190.83395751  .00008524  00000+0  29578-3 0  9992
2 57176  97.5051 254.9548 0011245  31.0176 329.1726 15.29985046167804
SITRO-AIS 6 (CHIRKIN)   
1 57192U 23091AC  26190.86577604  .00007351  00000+0  28501-3 0  9994
2 57192  97.5059 253.9842 0011740  34.6953 325.5049 15.26373097167743
SITRO-AIS 8 (ANOKHIN)   
1 57193U 23091AD  26190.81071272  .00010204  00000+0  32446-3 0  9994
2 57193  97.5048 256.6136 0010080  27.1789 332.9978 15.32762550167913
SITRO-AIS 7 (FARTUSHNIY)
1 57194U 23091AE  26190.80806551  .00006761  00000+0  26495-3 0  9990
2 57194  97.5056 253.7394 0011700  36.0364 324.1661 15.26048450167725
SITRO-AIS 10 (BURDAEV)  
1 57199U 23091AK  26190.81038623  .00015357  00000+0  39310-3 0  9994
2 57199  97.5073 261.9053 0005366   3.5346 356.5937 15.39488967168240
SITRO-AIS 9 (SHCHUKIN)  
1 57201U 23091AM  26190.84413080  .00014257  00000+0  37125-3 0  9995
2 57201  97.5071 261.6517 0005659   3.5223 356.6061 15.38978652168235
SITRO-AIS 12 (SMIRENNIY)
1 57204U 23091AQ  26190.83044108  .00015147  00000+0  39053-3 0  9999
2 57204  97.5084 262.1192 0005156 357.0213   3.1001 15.39272174168252
SITRO-AIS 11 (SHEFFER)  
1 57208U 23091AU  26190.83749917  .00014943  00000+0  37982-3 0  9995
2 57208  97.5082 262.3875 0005075 356.5811   3.5399 15.39713679168278
SITRO-AIS 25            
1 59066U 24039R   26190.88716499  .00001619  00000+0  12848-3 0  9996
2 59066  95.3896 250.6916 0142440 248.3194 110.2814 14.93623665128118
SITRO-AIS 26            
1 59067U 24039S   26190.89166050  .00001702  00000+0  13549-3 0  9992
2 59067  95.3897 250.5876 0142772 248.9201 109.6710 14.93416091128106
SITRO-AIS 27            
1 59068U 24039T   26190.85551862  .00002170  00000+0  17046-3 0  9994
2 59068  95.3901 250.8452 0141862 247.5917 111.0229 14.93841036128129
SITRO-AIS 28            
1 59071U 24039U   26190.83245226  .00001898  00000+0  14933-3 0  9998
2 59071  95.3900 250.8778 0141743 247.5024 111.1144 14.93872882128120
GRBBETA                 
1 60237U 24128C   26190.31968764  .00002568  00000+0  18354-3 0  9991
2 60237  61.9890 138.6053 0037769 139.4381 220.9537 15.06782844109609
OOV-CUBE (TUBSAT-30)    
1 60240U 24128F   26190.61158507  .00001327  00000+0  11249-3 0  9992
2 60240  61.9941 147.3745 0041807 138.6969 221.7297 15.02859618109484
ROBUSTA-3A (MEDITERRAN*)
1 60243U 24128J   26190.22635085  .00005214  00000+0  31033-3 0  9995
2 60243  61.9854 130.2913 0038630 132.7445 227.6912 15.11930024109752
LASARSAT                
1 62391U 24247Q   26190.25332936  .00029396  00000+0  55886-3 0  9994
2 62391  44.9739 138.0904 0006560 123.7678 236.3838 15.47760337 86735
CROCUBE                 
1 62394U 24247T   26189.90057851  .00030882  00000+0  54549-3 0  9994
2 62394  44.9702 137.0377 0006664 127.4839 232.6659 15.49837294 86713
FORESAIL-1 PRIME        
1 66778U 25276DS  26190.00167946  .00003136  00000+0  15352-3 0  9998
2 66778  97.4190 262.8749 0003328  58.2823 301.8736 15.18903079 33713
KNACKSAT-2              
1 67683U 98067XZ  26189.28582417  .00035828  00000+0  40782-3 0  9992
2 67683  51.6260 188.2015 0008208 303.7179  56.3032 15.61884949 23576
