OBJECT_NAME,OBJECT_ID,EPOCH,MEAN_MOTION,ECCENTRICITY,INCLINATION,RA_OF_ASC_NODE,ARG_OF_PERICENTER,MEAN_ANOMALY,EPHEMERIS_TYPE,CLASSIFICATION_TYPE,NORAD_CAT_ID,ELEMENT_SET_NO,REV_AT_EPOCH,BSTAR,MEAN_MOTION_DOT,MEAN_MOTION_DDOT
M2 PATHFINDER,2020-037E,2026-07-09T06:10:49.988928,15.04779974,.00133298,97.8157,21.7386,80.7061,279.5671,0,U,45727,999,32881,.11208283E-3,.1519E-4,0
NETSAT-4,2020-068U,2026-07-09T14:38:23.149824,15.44626563,.000402,97.8612,200.6643,217.4742,142.6226,0,U,46504,999,31923,.28188E-3,.13033E-3,0
NETSAT-3,2020-068V,2026-07-09T19:51:54.836064,15.43481617,.0003248,97.8658,199.0882,236.5076,123.5860,0,U,46505,999,31917,.31564E-3,.14051E-3,0
NETSAT-1,2020-068W,2026-07-09T05:39:34.003008,15.35153967,.00024972,97.8752,192.5160,300.1737,59.9257,0,U,46506,999,31868,.2664861E-3,.9005E-4,0
NETSAT-2,2020-068X,2026-07-08T23:17:43.803168,15.46967375,.00014715,97.8620,199.9501,244.6815,115.4281,0,U,46507,999,31910,.32664641E-3,.16384E-3,0
GREENCUBE (IO-117),2022-080E,2026-07-09T06:49:55.485408,6.42583278,.00090276,70.1425,290.5613,284.8400,75.1260,0,U,53109,999,9348,0,-.3E-7,0
SITRO-AIS 5 (KATYS),2023-091L,2026-07-09T20:00:53.928864,15.29985046,.0011245,97.5051,254.9548,31.0176,329.1726,0,U,57176,999,16780,.29578E-3,.8524E-4,0
SITRO-AIS 6 (CHIRKIN),2023-091AC,2026-07-09T20:46:43.049856,15.26373097,.001174,97.5059,253.9842,34.6953,325.5049,0,U,57192,999,16774,.28501E-3,.7351E-4,0
SITRO-AIS 8 (ANOKHIN),2023-091AD,2026-07-09T19:27:25.579008,15.32762550,.001008,97.5048,256.6136,27.1789,332.9978,0,U,57193,999,16791,.32446E-3,.10204E-3,0
SITRO-AIS 7 (FARTUSHNIY),2023-091AE,2026-07-09T19:23:36.860064,15.26048450,.00117,97.5056,253.7394,36.0364,324.1661,0,U,57194,999,16772,.26495E-3,.6761E-4,0
SITRO-AIS 10 (BURDAEV),2023-091AK,2026-07-09T19:26:57.370272,15.39488967,.0005366,97.5073,261.9053,3.5346,356.5937,0,U,57199,999,16824,.3931E-3,.15357E-3,0
SITRO-AIS 9 (SHCHUKIN),2023-091AM,2026-07-09T20:15:32.901120,15.38978652,.0005659,97.5071,261.6517,3.5223,356.6061,0,U,57201,999,16823,.37125E-3,.14257E-3,0
SITRO-AIS 12 (SMIRENNIY),2023-091AQ,2026-07-09T19:55:50.109312,15.39272174,.0005156,97.5084,262.1192,357.0213,3.1001,0,U,57204,999,16825,.39053E-3,.15147E-3,0
SITRO-AIS 11 (SHEFFER),2023-091AU,2026-07-09T20:05:59.928288,15.39713679,.0005075,97.5082,262.3875,356.5811,3.5399,0,U,57208,999,16827,.37982E-3,.14943E-3,0
SITRO-AIS 25,2024-039R,2026-07-09T21:17:31.055136,14.93623665,.014244,95.3896,250.6916,248.3194,110.2814,0,U,59066,999,12811,.12848E-3,.1619E-4,0
SITRO-AIS 26,2024-039S,2026-07-09T21:23:59.467200,14.93416091,.0142772,95.3897,250.5876,248.9201,109.6710,0,U,59067,999,12810,.13549E-3,.1702E-4,0
SITRO-AIS 27,2024-039T,2026-07-09T20:31:56.808768,14.93841036,.0141862,95.3901,250.8452,247.5917,111.0229,0,U,59068,999,12812,.17046E-3,.217E-4,0
SITRO-AIS 28,2024-039U,2026-07-09T19:58:43.875264,14.93872882,.0141743,95.3900,250.8778,247.5024,111.1144,0,U,59071,999,12812,.14933E-3,.1898E-4,0
GRBBETA,2024-128C,2026-07-09T07:40:21.012096,15.06782844,.00377691,61.9890,138.6053,139.4381,220.9537,0,U,60237,999,10960,.18353788E-3,.2568E-4,0
OOV-CUBE (TUBSAT-30),2024-128F,2026-07-09T14:40:40.950048,15.02859618,.0041807,61.9941,147.3745,138.6969,221.7297,0,U,60240,999,10948,.11249E-3,.1327E-4,0
ROBUSTA-3A (MEDITERRANEE),2024-128J,2026-07-09T05:25:56.713440,15.11930024,.00386303,61.9854,130.2913,132.7445,227.6912,0,U,60243,999,10975,.31032998E-3,.5214E-4,0
LASARSAT,2024-247Q,2026-07-09T06:04:47.656704,15.47760337,.00065601,44.9739,138.0904,123.7678,236.3838,0,U,62391,999,8673,.55885757E-3,.29396E-3,0
CROCUBE,2024-247T,2026-07-08T21:36:49.983264,15.49837294,.00066644,44.9702,137.0377,127.4839,232.6659,0,U,62394,999,8671,.54549448E-3,.30882E-3,0
FORESAIL-1 PRIME,2025-276DS,2026-07-09T00:02:25.105344,15.18903079,.00033282,97.4190,262.8749,58.2823,301.8736,0,U,66778,999,3371,.15351522E-3,.3136E-4,0
KNACKSAT-2,1998-067XZ,2026-07-08T06:51:35.208288,15.61884949,.00082087,51.6260,188.2015,303.7179,56.3032,0,U,67683,999,2357,.40782476E-3,.35828E-3,0
